COMMENT,ORIGINATOR,NORAD_CAT_ID,OBJECT_NAME,OBJECT_TYPE,CLASSIFICATION_TYPE,INTLDES,EPOCH,EPOCH_MICROSECONDS,MEAN_MOTION,ECCENTRICITY,INCLINATION,RA_OF_ASC_NODE,ARG_OF_PERICENTER,MEAN_ANOMALY,EPHEMERIS_TYPE,ELEMENT_SET_NO,REV_AT_EPOCH,BSTAR,MEAN_MOTION_DOT,MEAN_MOTION_DDOT,FILE,TLE_LINE0,TLE_LINE1,TLE_LINE2,OBJECT_ID,OBJECT_NUMBER,SEMIMAJOR_AXIS,PERIOD,APOGEE,PERIGEE,DECAYED
"GENERATED VIA SPACETRACK.ORG API","18 SPCS","55092","SPACEBEE-166","PAYLOAD","U","23001CM","2023-11-07 03:16:04","635264","15.2798412","0.0013459","97.4571","10.6517","218.0277","142.0013","0","999","4687","0.0018149","0.00049881","0","4076432","0 SPACEBEE-166","1 55092U 23001CM  23311.13616476  .00049881  00000-0  18149-2 0  9996","2 55092  97.4571  10.6517 0013459 218.0277 142.0013 15.27984120 46870","2023-001CM","55092","6859.976","94.242","491.074","472.608","0"
"GENERATED VIA SPACETRACK.ORG API","18 SPCS","55092","SPACEBEE-166","PAYLOAD","U","23001CM","2023-11-07 17:24:47","137248","15.28031553","0.0013392","97.4572","11.2419","216.1984","143.835","0","999","4696","0.0012708","0.00034885","0","4076727","0 SPACEBEE-166","1 55092U 23001CM  23311.72554557  .00034885  00000-0  12708-2 0  9995","2 55092  97.4572  11.2419 0013392 216.1984 143.8350 15.28031553 46966","2023-001CM","55092","6859.834","94.239","490.886","472.513","0"
"GENERATED VIA SPACETRACK.ORG API","18 SPCS","55092","SPACEBEE-166","PAYLOAD","U","23001CM","2023-11-08 02:50:34","551744","15.2806835","0.0013463","97.4573","11.6346","214.5255","145.5111","0","999","4702","0.001478","0.00040662","0","4077995","0 SPACEBEE-166","1 55092U 23001CM  23312.11845546  .00040662  00000-0  14780-2 0  9992","2 55092  97.4573  11.6346 0013463 214.5255 145.5111 15.28068350 47029","2023-001CM","55092","6859.724","94.237","490.824","472.354","0"
"GENERATED VIA SPACETRACK.ORG API","18 SPCS","55092","SPACEBEE-166","PAYLOAD","U","23001CM","2023-11-08 02:50:34","551744","15.2806835","0.0013463","97.4573","11.6346","214.5255","145.5111","0","999","4702","0.001478","0.00040662","0","4078352","0 SPACEBEE-166","1 55092U 23001CM  23312.11845546  .00040662  00000-0  14780-2 0  9992","2 55092  97.4573  11.6346 0013463 214.5255 145.5111 15.28068350 47029","2023-001CM","55092","6859.724","94.237","490.824","472.354","0"
"GENERATED VIA SPACETRACK.ORG API","18 SPCS","55092","SPACEBEE-166","PAYLOAD","U","23001CM","2023-11-08 16:59:14","361504","15.281156","0.0013391","97.4571","12.2246","212.3717","147.6703","0","999","4711","0.0014648","0.00040354","0","4078917","0 SPACEBEE-166","1 55092U 23001CM  23312.70780511  .00040354  00000-0  14648-2 0  9998","2 55092  97.4571  12.2246 0013391 212.3717 147.6703 15.28115600 47113","2023-001CM","55092","6859.583","94.234","490.633","472.262","0"
"GENERATED VIA SPACETRACK.ORG API","18 SPCS","55092","SPACEBEE-166","PAYLOAD","U","23001CM","2023-11-09 03:59:17","582208","15.28150239","0.0013448","97.4572","12.683","210.5281","149.5176","0","999","4718","0.0014062","0.0003877","0","4079308","0 SPACEBEE-166","1 55092U 23001CM  23313.16617572  .00038770  00000-0  14062-2 0  9994","2 55092  97.4572  12.6830 0013448 210.5281 149.5176 15.28150239 47185","2023-001CM","55092","6859.479","94.232","490.569","472.119","0"
"GENERATED VIA SPACETRACK.ORG API","18 SPCS","55092","SPACEBEE-166","PAYLOAD","U","23001CM","2023-11-09 03:59:17","582208","15.28150239","0.0013448","97.4572","12.683","210.5281","149.5176","0","999","4718","0.0014062","0.0003877","0","4080359","0 SPACEBEE-166","1 55092U 23001CM  23313.16617572  .00038770  00000-0  14062-2 0  9994","2 55092  97.4572  12.6830 0013448 210.5281 149.5176 15.28150239 47185","2023-001CM","55092","6859.479","94.232","490.569","472.119","0"
"GENERATED VIA SPACETRACK.ORG API","18 SPCS","55092","SPACEBEE-166","PAYLOAD","U","23001CM","2023-11-09 16:33:37","335744","15.28188338","0.0013317","97.457","13.2067","209.1173","150.9326","0","999","4726","0.0012863","0.00035482","0","4080838","0 SPACEBEE-166","1 55092U 23001CM  23313.69001546  .00035482  00000-0  12863-2 0  9994","2 55092  97.4570  13.2067 0013317 209.1173 150.9326 15.28188338 47264","2023-001CM","55092","6859.365","94.229","490.365","472.096","0"
"GENERATED VIA SPACETRACK.ORG API","18 SPCS","55092","SPACEBEE-166","PAYLOAD","U","23001CM","2023-11-10 09:50:47","733216","15.28236513","0.0013381","97.4567","13.9276","206.5402","153.5153","0","999","4737","0.001231","0.00033998","0","4081854","0 SPACEBEE-166","1 55092U 23001CM  23314.41027469  .00033998  00000-0  12310-2 0  9994","2 55092  97.4567  13.9276 0013381 206.5402 153.5153 15.28236513 47374","2023-001CM","55092","6859.221","94.226","490.264","471.908","0"
"GENERATED VIA SPACETRACK.ORG API","18 SPCS","55092","SPACEBEE-166","PAYLOAD","U","23001CM","2023-11-10 09:50:47","733216","15.28236513","0.0013381","97.4567","13.9276","206.5402","153.5153","0","999","4737","0.001231","0.00033998","0","4082124","0 SPACEBEE-166","1 55092U 23001CM  23314.41027469  .00033998  00000-0  12310-2 0  9994","2 55092  97.4567  13.9276 0013381 206.5402 153.5153 15.28236513 47374","2023-001CM","55092","6859.221","94.226","490.264","471.908","0"
"GENERATED VIA SPACETRACK.ORG API","18 SPCS","55092","SPACEBEE-166","PAYLOAD","U","23001CM","2023-11-10 16:07:56","453088","15.28256113","0.0013381","97.4566","14.1896","205.7943","154.263","0","999","4741","0.0012428","0.00034346","0","4082691","0 SPACEBEE-166","1 55092U 23001CM  23314.67218117  .00034346  00000-0  12428-2 0  9992","2 55092  97.4566  14.1896 0013381 205.7943 154.2630 15.28256113 47416","2023-001CM","55092","6859.162","94.225","490.206","471.849","0"
"GENERATED VIA SPACETRACK.ORG API","18 SPCS","55092","SPACEBEE-166","PAYLOAD","U","23001CM","2023-11-11 03:07:56","148672","15.28283305","0.0013493","97.4566","14.6484","203.9373","156.1241","0","999","4748","0.0011426","0.00031587","0","4083845","0 SPACEBEE-166","1 55092U 23001CM  23315.13051098  .00031587  00000-0  11426-2 0  9998","2 55092  97.4566  14.6484 0013493 203.9373 156.1241 15.28283305 47484","2023-001CM","55092","6859.081","94.223","490.201","471.691","0"
"GENERATED VIA SPACETRACK.ORG API","18 SPCS","55092","SPACEBEE-166","PAYLOAD","U","23001CM","2023-11-11 17:16:28","964352","15.28320062","0.0013488","97.4565","15.2381","201.8772","158.1893","0","999","4757","0.0011163","0.0003089","0","4084217","0 SPACEBEE-166","1 55092U 23001CM  23315.71977968  .00030890  00000-0  11163-2 0  9999","2 55092  97.4565  15.2381 0013488 201.8772 158.1893 15.28320062 47577","2023-001CM","55092","6858.971","94.221","490.087","471.585","0"
"GENERATED VIA SPACETRACK.ORG API","18 SPCS","55092","SPACEBEE-166","PAYLOAD","U","23001CM","2023-11-11 17:16:28","964352","15.28320062","0.0013488","97.4565","15.2381","201.8772","158.1893","0","999","4757","0.0011163","0.0003089","0","4084458","0 SPACEBEE-166","1 55092U 23001CM  23315.71977968  .00030890  00000-0  11163-2 0  9999","2 55092  97.4565  15.2381 0013488 201.8772 158.1893 15.28320062 47577","2023-001CM","55092","6858.971","94.221","490.087","471.585","0"
"GENERATED VIA SPACETRACK.ORG API","18 SPCS","55092","SPACEBEE-166","PAYLOAD","U","23001CM","2023-11-12 10:33:34","255584","15.28357383","0.0013549","97.4567","15.96","198.8162","161.2578","0","999","4768","0.00096474","0.00026702","0","4085556","0 SPACEBEE-166","1 55092U 23001CM  23316.43997981  .00026702  00000-0  96474-3 0  9992","2 55092  97.4567  15.9600 0013549 198.8162 161.2578 15.28357383 47689","2023-001CM","55092","6858.859","94.219","490.017","471.431","0"
"GENERATED VIA SPACETRACK.ORG API","18 SPCS","55092","SPACEBEE-166","PAYLOAD","U","23001CM","2023-11-12 21:33:31","271904","15.28386439","0.0013589","97.4562","16.419","197.0549","163.0236","0","999","4775","0.001113","0.00030862","0","4086163","0 SPACEBEE-166","1 55092U 23001CM  23316.89827861  .00030862  00000-0  11130-2 0  9998","2 55092  97.4562  16.4190 0013589 197.0549 163.0236 15.28386439 47751","2023-001CM","55092","6858.772","94.217","489.958","471.317","0"
"GENERATED VIA SPACETRACK.ORG API","18 SPCS","55092","SPACEBEE-166","PAYLOAD","U","23001CM","2023-11-13 03:50:37","809312","15.28403315","0.0013574","97.4561","16.681","196.1939","163.8869","0","999","4779","0.0011158","0.00030956","0","4086552","0 SPACEBEE-166","1 55092U 23001CM  23317.16015983  .00030956  00000-0  11158-2 0  9997","2 55092  97.4561  16.6810 0013574 196.1939 163.8869 15.28403315 47795","2023-001CM","55092","6858.722","94.216","489.897","471.277","0"
"GENERATED VIA SPACETRACK.ORG API","18 SPCS","55092","SPACEBEE-166","PAYLOAD","U","23001CM","2023-11-13 10:07:44","52096","15.28424347","0.001365","97.4558","16.9431","195.2111","164.872","0","999","4783","0.0012972","0.00036049","0","4087425","0 SPACEBEE-166","1 55092U 23001CM  23317.42203764  .00036049  00000-0  12972-2 0  9996","2 55092  97.4558  16.9431 0013650 195.2111 164.8720 15.28424347 47830","2023-001CM","55092","6858.659","94.215","489.886","471.162","0"
"GENERATED VIA SPACETRACK.ORG API","18 SPCS","55092","SPACEBEE-166","PAYLOAD","U","23001CM","2023-11-14 09:41:50","519616","15.28475778","0.0013702","97.4552","17.926","191.8375","168.2544","0","999","4798","0.00092222","0.00025613","0","4088984","0 SPACEBEE-166","1 55092U 23001CM  23318.40405694  .00025613  00000-0  92222-3 0  9993","2 55092  97.4552  17.9260 0013702 191.8375 168.2544 15.28475778 47989","2023-001CM","55092","6858.505","94.212","489.768","470.973","0"
"GENERATED VIA SPACETRACK.ORG API","18 SPCS","55092","SPACEBEE-166","PAYLOAD","U","23001CM","2023-11-14 14:24:39","472704","15.28485933","0.0013724","97.4552","18.1225","191.1636","168.9302","0","999","4801","0.00087766","0.00024375","0","4089264","0 SPACEBEE-166","1 55092U 23001CM  23318.60045686  .00024375  00000-0  87766-3 0  9997","2 55092  97.4552  18.1225 0013724 191.1636 168.9302 15.28485933 48018","2023-001CM","55092","6858.475","94.211","489.752","470.927","0"
